{"type": "FeatureCollection", "features": [ {"type": "Feature", "properties": {"norad_id": 34979, "name": "COSMOS 2251 DEB", "group": "cosmos-2251-debris", "lat": 40.467041325902905, "lon": 64.94417783410684, "alt_km": 660.2500749351166, "timestamp": "2025-12-16T21:38:57.571002+00:00", "meta": {"OBJECT_NAME": "COSMOS 2251 DEB", "OBJECT_ID": "1993-036AFJ", "EPOCH": "2025-12-15T19:03:47.068992", "MEAN_MOTION": 14.79414355, "ECCENTRICITY": 0.00491466, "INCLINATION": 74.0407, "RA_OF_ASC_NODE": 261.2529, "ARG_OF_PERICENTER": 338.5418, "MEAN_ANOMALY": 21.3696, "EPHEMERIS_TYPE": 0, "CLASSIFICATION_TYPE": "U", "NORAD_CAT_ID": 34979, "ELEMENT_SET_NO": 999, "REV_AT_EPOCH": 88265, "BSTAR": 0.00078199821, "MEAN_MOTION_DOT": 5.924e-05, "MEAN_MOTION_DDOT": 0}, "tle": {"line1": "1 34979U 93036AFJ 25349.79429478  .00005924  00000+0  78200-3 0  9995", "line2": "2 34979  74.0407 261.2529 0049146 338.5418  21.3696 14.79414355882658"}}, "geometry": {"type": "Point", "coordinates": [64.94417783410684, 40.467041325902905]}}, {"type": "Feature", "properties": {"norad_id": 34990, "name": "COSMOS 2251 DEB", "group": "cosmos-2251-debris", "lat": 44.96446240508332, "lon": -99.77821050185813, "alt_km": 748.7482066185157, "timestamp": "2025-12-16T21:38:57.571012+00:00", "meta": {"OBJECT_NAME": "COSMOS 2251 DEB", "OBJECT_ID": "1993-036AFN", "EPOCH": "2025-12-15T10:28:28.781472", "MEAN_MOTION": 14.42382837, "ECCENTRICITY": 0.00165597, "INCLINATION": 74.0457, "RA_OF_ASC_NODE": 246.3361, "ARG_OF_PERICENTER": 308.9911, "MEAN_ANOMALY": 50.977, "EPHEMERIS_TYPE": 0, "CLASSIFICATION_TYPE": "U", "NORAD_CAT_ID": 34990, "ELEMENT_SET_NO": 999, "REV_AT_EPOCH": 87385, "BSTAR": 0.00031884459, "MEAN_MOTION_DOT": 1.029e-05, "MEAN_MOTION_DDOT": 0}, "tle": {"line1": "1 34990U 93036AFN 25349.43644423  .00001029  00000+0  31884-3 0  9997", "line2": "2 34990  74.0457 246.3361 0016559 308.9911  50.9770 14.42382837873857"}}, "geometry": {"type": "Point", "coordinates": [-99.77821050185813, 44.96446240508332]}}, {"type": "Feature", "properties": {"norad_id": 34997, "name": "COSMOS 2251 DEB", "group": "cosmos-2251-debris", "lat": -71.41867211346738, "lon": -177.2938249394183, "alt_km": 680.3406554296316, "timestamp": "2025-12-16T21:38:57.571022+00:00", "meta": {"OBJECT_NAME": "COSMOS 2251 DEB", "OBJECT_ID": "1993-036AFV", "EPOCH": "2025-12-14T03:40:01.084512", "MEAN_MOTION": 14.45585468, "ECCENTRICITY": 0.00977103, "INCLINATION": 73.8806, "RA_OF_ASC_NODE": 308.5363, "ARG_OF_PERICENTER": 283.3348, "MEAN_ANOMALY": 75.6929, "EPHEMERIS_TYPE": 0, "CLASSIFICATION_TYPE": "U", "NORAD_CAT_ID": 34997, "ELEMENT_SET_NO": 999, "REV_AT_EPOCH": 70767, "BSTAR": 0.0019000145, "MEAN_MOTION_DOT": 7.095e-05, "MEAN_MOTION_DDOT": 0}, "tle": {"line1": "1 34997U 93036AFV 25348.15279033  .00007095  00000+0  19000-2 0  9997", "line2": "2 34997  73.8806 308.5363 0097710 283.3348  75.6929 14.45585468707674"}}, "geometry": {"type": "Point", "coordinates": [-177.2938249394183, -71.41867211346738]}}, {"type": "Feature", "properties": {"norad_id": 34998, "name": "COSMOS 2251 DEB", "group": "cosmos-2251-debris", "lat": -14.677701105929454, "lon": -23.52766020346434, "alt_km": 735.3212563189682, "timestamp": "2025-12-16T21:38:57.571033+00:00", "meta": {"OBJECT_NAME": "COSMOS 2251 DEB", "OBJECT_ID": "1993-036AFW", "EPOCH": "2025-12-16T05:00:03.999168", "MEAN_MOTION": 14.49296391, "ECCENTRICITY": 0.00212626, "INCLINATION": 74.0093, "RA_OF_ASC_NODE": 153.4675, "ARG_OF_PERICENTER": 298.437, "MEAN_ANOMALY": 239.2081, "EPHEMERIS_TYPE": 0, "CLASSIFICATION_TYPE": "U", "NORAD_CAT_ID": 34998, "ELEMENT_SET_NO": 999, "REV_AT_EPOCH": 87470, "BSTAR": 0.0004654885, "MEAN_MOTION_DOT": 1.754e-05, "MEAN_MOTION_DDOT": 0}, "tle": {"line1": "1 34998U 93036AFW 25350.20837962  .00001754  00000+0  46549-3 0  9993", "line2": "2 34998  74.0093 153.4675 0021262 298.4370 239.2081 14.49296391874704"}}, "geometry": {"type": "Point", "coordinates": [-23.52766020346434, -14.677701105929454]}}, {"type": "Feature", "properties": {"norad_id": 35000, "name": "COSMOS 2251 DEB", "group": "cosmos-2251-debris", "lat": -6.306546628353826, "lon": 9.804554892994721, "alt_km": 128.13354134350539, "timestamp": "2025-12-16T21:38:57.571043+00:00", "meta": {"OBJECT_NAME": "COSMOS 2251 DEB", "OBJECT_ID": "1993-036AFY", "EPOCH": "2025-12-10T00:39:45.535104", "MEAN_MOTION": 15.84722247, "ECCENTRICITY": 0.00096992, "INCLINATION": 73.9939, "RA_OF_ASC_NODE": 204.1935, "ARG_OF_PERICENTER": 175.3945, "MEAN_ANOMALY": 184.7377, "EPHEMERIS_TYPE": 0, "CLASSIFICATION_TYPE": "U", "NORAD_CAT_ID": 35000, "ELEMENT_SET_NO": 999, "REV_AT_EPOCH": 88472, "BSTAR": 0.007821664, "MEAN_MOTION_DOT": 0.0209211, "MEAN_MOTION_DDOT": 0}, "tle": {"line1": "1 35000U 93036AFY 25344.02761036  .02092110  00000+0  78217-2 0  9993", "line2": "2 35000  73.9939 204.1935 0009699 175.3945 184.7377 15.84722247884729"}}, "geometry": {"type": "Point", "coordinates": [9.804554892994721, -6.306546628353826]}}, {"type": "Feature", "properties": {"norad_id": 35012, "name": "COSMOS 2251 DEB", "group": "cosmos-2251-debris", "lat": 62.86227396098942, "lon": -110.0210616155045, "alt_km": 771.5890907955009, "timestamp": "2025-12-16T21:38:57.571053+00:00", "meta": {"OBJECT_NAME": "COSMOS 2251 DEB", "OBJECT_ID": "1993-036AFZ", "EPOCH": "2025-12-16T07:50:15.459648", "MEAN_MOTION": 14.45553637, "ECCENTRICITY": 0.00815743, "INCLINATION": 74.0207, "RA_OF_ASC_NODE": 105.0422, "ARG_OF_PERICENTER": 244.4407, "MEAN_ANOMALY": 114.8302, "EPHEMERIS_TYPE": 0, "CLASSIFICATION_TYPE": "U", "NORAD_CAT_ID": 35012, "ELEMENT_SET_NO": 999, "REV_AT_EPOCH": 87613, "BSTAR": 0.00017108569, "MEAN_MOTION_DOT": 6e-06, "MEAN_MOTION_DDOT": 0}, "tle": {"line1": "1 35012U 93036AFZ 25350.32656782  .00000600  00000+0  17109-3 0  9992", "line2": "2 35012  74.0207 105.0422 0081574 244.4407 114.8302 14.45553637876134"}}, "geometry": {"type": "Point", "coordinates": [-110.0210616155045, 62.86227396098942]}}, {"type": "Feature", "properties": {"norad_id": 35014, "name": "COSMOS 2251 DEB", "group": "cosmos-2251-debris", "lat": -52.96813485735526, "lon": 13.028113455073173, "alt_km": 651.0217821808583, "timestamp": "2025-12-16T21:38:57.571063+00:00", "meta": {"OBJECT_NAME": "COSMOS 2251 DEB", "OBJECT_ID": "1993-036AGB", "EPOCH": "2025-12-15T10:05:53.714976", "MEAN_MOTION": 14.75246111, "ECCENTRICITY": 0.00071618, "INCLINATION": 74, "RA_OF_ASC_NODE": 38.2838, "ARG_OF_PERICENTER": 216.2396, "MEAN_ANOMALY": 143.8294, "EPHEMERIS_TYPE": 0, "CLASSIFICATION_TYPE": "U", "NORAD_CAT_ID": 35014, "ELEMENT_SET_NO": 999, "REV_AT_EPOCH": 71376, "BSTAR": 0.00097651538, "MEAN_MOTION_DOT": 6.583e-05, "MEAN_MOTION_DDOT": 0}, "tle": {"line1": "1 35014U 93036AGB 25349.42076059  .00006583  00000+0  97652-3 0  9993", "line2": "2 35014  74.0000  38.2838 0007161 216.2396 143.8294 14.75246111713769"}}, "geometry": {"type": "Point", "coordinates": [13.028113455073173, -52.96813485735526]}}, {"type": "Feature", "properties": {"norad_id": 35015, "name": "COSMOS 2251 DEB", "group": "cosmos-2251-debris", "lat": -73.89695936044454, "lon": 132.69806546526982, "alt_km": 795.2954286492768, "timestamp": "2025-12-16T21:38:57.571074+00:00", "meta": {"OBJECT_NAME": "COSMOS 2251 DEB", "OBJECT_ID": "1993-036AGC", "EPOCH": "2025-12-15T22:56:26.813760", "MEAN_MOTION": 14.46895598, "ECCENTRICITY": 0.0074243, "INCLINATION": 73.9481, "RA_OF_ASC_NODE": 228.6843, "ARG_OF_PERICENTER": 96.6585, "MEAN_ANOMALY": 285.5342, "EPHEMERIS_TYPE": 0, "CLASSIFICATION_TYPE": "U", "NORAD_CAT_ID": 35015, "ELEMENT_SET_NO": 999, "REV_AT_EPOCH": 65487, "BSTAR": 0.00054698056, "MEAN_MOTION_DOT": 2.026e-05, "MEAN_MOTION_DDOT": 0}, "tle": {"line1": "1 35015U 93036AGC 25349.95586590  .00002026  00000+0  54698-3 0  9999", "line2": "2 35015  73.9481 228.6843 0074243  96.6585 285.5342 14.46895598654878"}}, "geometry": {"type": "Point", "coordinates": [132.69806546526982, -73.89695936044454]}}, {"type": "Feature", "properties": {"norad_id": 35016, "name": "COSMOS 2251 DEB", "group": "cosmos-2251-debris", "lat": 62.657704893252536, "lon": 72.86085976715533, "alt_km": 768.1074997809183, "timestamp": "2025-12-16T21:38:57.571084+00:00", "meta": {"OBJECT_NAME": "COSMOS 2251 DEB", "OBJECT_ID": "1993-036AGD", "EPOCH": "2025-12-16T06:46:38.258400", "MEAN_MOTION": 14.35067711, "ECCENTRICITY": 0.01143209, "INCLINATION": 73.9301, "RA_OF_ASC_NODE": 287.8848, "ARG_OF_PERICENTER": 204.1213, "MEAN_ANOMALY": 309.4836, "EPHEMERIS_TYPE": 0, "CLASSIFICATION_TYPE": "U", "NORAD_CAT_ID": 35016, "ELEMENT_SET_NO": 999, "REV_AT_EPOCH": 86833, "BSTAR": 0.0002964161, "MEAN_MOTION_DOT": 8.82e-06, "MEAN_MOTION_DDOT": 0}, "tle": {"line1": "1 35016U 93036AGD 25350.28238725  .00000882  00000+0  29642-3 0  9991", "line2": "2 35016  73.9301 287.8848 0114320 204.1213 309.4836 14.35067711868335"}}, "geometry": {"type": "Point", "coordinates": [72.86085976715533, 62.657704893252536]}}, {"type": "Feature", "properties": {"norad_id": 35018, "name": "COSMOS 2251 DEB", "group": "cosmos-2251-debris", "lat": -73.80932927797778, "lon": 21.335690495286176, "alt_km": 1049.0641774979931, "timestamp": "2025-12-16T21:38:57.571095+00:00", "meta": {"OBJECT_NAME": "COSMOS 2251 DEB", "OBJECT_ID": "1993-036AGF", "EPOCH": "2025-12-14T01:34:23.097504", "MEAN_MOTION": 13.6711728, "ECCENTRICITY": 0.03485759, "INCLINATION": 73.9758, "RA_OF_ASC_NODE": 107.7987, "ARG_OF_PERICENTER": 16.6862, "MEAN_ANOMALY": 344.5383, "EPHEMERIS_TYPE": 0, "CLASSIFICATION_TYPE": "U", "NORAD_CAT_ID": 35018, "ELEMENT_SET_NO": 999, "REV_AT_EPOCH": 83204, "BSTAR": 0.00097087301, "MEAN_MOTION_DOT": 1.216e-05, "MEAN_MOTION_DDOT": 0}, "tle": {"line1": "1 35018U 93036AGF 25348.06554511  .00001216  00000+0  97087-3 0  9990", "line2": "2 35018  73.9758 107.7987 0348575  16.6862 344.5383 13.67117280832041"}}, "geometry": {"type": "Point", "coordinates": [21.335690495286176, -73.80932927797778]}}]}